0 SL-16 DEB
1 22429U 92093DW  13282.16862272  .00012343  00000-0  11974-2 0   406
2 22429 071.1082 358.6169 0059331 140.9011 243.5077 14.91449595110905
0 SL-16 DEB
1 22429U 92093DW  13283.17520315  .00011008  00000-0  10684-2 0   412
2 22429 071.1081 356.2394 0059225 139.0875 248.1560 14.91472669111050
0 SL-16 DEB
1 22429U 92093DW  13286.19434248  .00008667  00000-0  84216-3 0   438
2 22429 071.1086 349.1088 0058964 133.6679 259.2591 14.91525696111503
0 SL-16 DEB
1 22429U 92093DW  13287.19894318  .00008252  00000-0  80218-3 0   446
2 22429 071.1086 346.7362 0058815 131.8618 253.5381 14.91538609111657
0 SL-16 DEB
1 22429U 92093DW  13288.21121022  .00013837  00000-0  13382-2 0   458
2 22429 071.1083 344.3453 0058708 130.0409 289.0469 14.91563487111809
0 SL-16 DEB
1 22429U 92093DW  13289.49019193  .00012221  00000-0  11824-2 0   460
2 22429 071.1080 341.3244 0058572 127.7372 316.8565 14.91590372111991
0 SL-16 DEB
1 22429U 92093DW  13290.57527008  .00012098  00000-0  11702-2 0   478
2 22429 071.1076 338.7614 0058496 125.7524 023.5692 14.91609660112152
0 SL-16 DEB
1 22429U 92093DW  13292.17635535  .00009115  00000-0  88325-3 0   484
2 22429 071.1069 334.9789 0058436 122.8234 341.3157 14.91640325112391
0 SL-16 DEB
1 22429U 92093DW  13293.32051538  .00010056  00000-0  97317-3 0   495
2 22429 071.1067 332.2755 0058380 120.7646 005.4634 14.91657141112566
0 SL-16 DEB
1 22429U 92093DW  13294.53251429  .00011749  00000-0  11351-2 0   505
2 22429 071.1067 329.4119 0058242 118.5501 034.0194 14.91674897112746
0 SL-16 DEB
1 22429U 92093DW  13295.53804481  .00012133  00000-0  11714-2 0   510
2 22429 071.1068 327.0362 0058210 116.6991 033.8971 14.91694292112895
